APRIZESAT 2             
1 28366U 04025A   16078.20119659  .00000107  00000-0  48507-4 0  9997
2 28366  98.3386   0.4417 0107391 335.1482  24.4554 14.36538090614124
SAUDICOMSAT 1           
1 28369U 04025D   16077.83389286  .00000246  00000-0  71109-4 0  9991
2 28369  98.1335  36.4343 0033586 353.5423   6.5335 14.52239789620552
SAUDICOMSAT 2           
1 28370U 04025E   16077.84486137  .00000188  00000-0  62294-4 0  9997
2 28370  98.2468  27.0783 0059248 101.8868 258.8977 14.47197528618465
APRIZESAT 1             
1 28372U 04025G   16077.85255053  .00000177  00000-0  57041-4 0  9993
2 28372  98.1967  31.0246 0047512  49.4598 311.0719 14.49410555619464
NANOSAT-1               
1 28493U 04049B   16077.75720827  .00000347  00000-0  62084-4 0  9990
2 28493  98.2615 134.9065 0004973  30.1084 330.0408 14.73134116603723
SAUDICOMSAT 7           
1 31119U 07012C   16078.18679459  .00000311  00000-0  70290-4 0  9993
2 31119  97.8877  54.5706 0061582  59.2012 301.5232 14.61441344475353
SAUDICOMSAT 6           
1 31121U 07012E   16077.86630003  .00000243  00000-0  60042-4 0  9990
2 31121  97.9519  45.1915 0078149 113.6250 247.3179 14.58247312474298
SAUDICOMSAT 5           
1 31124U 07012H   16077.20537206  .00000442  00000-0  93247-4 0  9996
2 31124  97.8522  59.2372 0052748  35.7683 324.7034 14.63115940475724
SAUDICOMSAT 3           
1 31125U 07012J   16077.52320937  .00000421  00000-0  86522-4 0  9998
2 31125  97.8185  65.3986 0043757   9.2262 350.9735 14.64817873476295
SAUDICOMSAT 4           
1 31127U 07012L   16076.96588872  .00000311  00000-0  72157-4 0  9998
2 31127  97.9184  49.1025 0069734  88.1656 272.7530 14.59954323474699
APRIZESAT 4             
1 35684U 09041D   16077.30943763  .00000436  00000-0  65478-4 0  9993
2 35684  98.0895  10.0347 0048553 128.3073  32.4905 14.78842702357608
APRIZESAT 3             
1 35686U 09041F   16078.11490852  .00000716  00000-0  83253-4 0  9993
2 35686  98.2370  53.5597 0074804  56.3309 304.5011 14.86797490359413
AISSAT 1                
1 36797U 10035C   16078.08857640  .00000755  00000-0  93920-4 0  9995
2 36797  98.0124 182.1761 0012264  49.9389 310.2899 14.85482973307587
